IRIDIUM 116             
1 43072U 17083C   24215.34395970  .00000475  00000+0  16252-3 0  9993
2 43072  86.3933 247.7650 0002253  89.7930 270.3524 14.34223312346156
IRIDIUM 130             
1 43073U 17083D   24215.59133176  .00000403  00000+0  13673-3 0  9994
2 43073  86.3941 247.8704 0002337  89.8544 270.2919 14.34220214346135
IRIDIUM 151             
1 43074U 17083E   24215.56596583  .00000334  00000+0  11232-3 0  9999
2 43074  86.3935 247.7144 0002198  96.3698 263.7748 14.34219154346154
IRIDIUM 134             
1 43075U 17083F   24215.60401048  .00000381  00000+0  12888-3 0  9996
2 43075  86.3937 247.6974 0002288  87.0658 273.0799 14.34216680346128
IRIDIUM 137             
1 43076U 17083G   24215.61670125  .00000324  00000+0  10852-3 0  9998
2 43076  86.3939 247.7708 0001801  98.4762 261.6638 14.34219410346195
IRIDIUM 141             
1 43077U 17083H   24215.61036114  .00000120  00000+0  35802-4 0  9990
2 43077  86.3934 247.6431 0002466  93.8411 266.3067 14.34217873346190
IRIDIUM 153             
1 43078U 17083J   24215.49276914  .00000313  00000+0  10458-3 0  9994
2 43078  86.3968 216.1684 0002807  97.7091 262.4423 14.34217387347289
IRIDIUM 131             
1 43079U 17083K   24215.59767528  .00000108  00000+0  31423-4 0  9990
2 43079  86.3938 247.7887 0002224  95.4969 264.6481 14.34218175346120
